# From MPC102099
P/2016 P1 (PANSTARRS),e,24.4137,319.5234,270.5055,3.199730,0.1722004,0.28935199,98.9535,01/07.0/2023,2000,g 15.0,4.0
# From MPEC 2022-M21
C/2016 Q2 (PANSTARRS),h,05/12.3685/2021,109.3823,322.3096,84.5566,1.002897,7.081919,2000,6.0,4.0
# From MPC102955
C/2016 Q4 (Kowalski),e,7.2462,271.2953,99.6796,17.02174,0.0140345,0.58306014,25.2817,01/07.0/2023,2000,g  7.0,4.0
# From MPEC 2021-N06
C/2016 R2 (PANSTARRS),e,58.3284,80.5140,33.0938,477.0636,0.0000946,0.99455744,0.0000,05/09.2184/2018,2000,g  7.0,4.0
# From MPEC 2022-K19
P/2016 R4 (Gibbs),e,10.8774,168.2616,174.1305,5.332685,0.0800360,0.47620147,188.7078,01/07.0/2023,2000,g 12.5,4.0
# From MPC105543
P/2016 S1 (PANSTARRS),e,94.7301,227.6516,273.2547,8.275815,0.0413988,0.71037304,87.8593,01/07.0/2023,2000,g 12.0,4.0
# From MPC106345
P/2016 WM48 (Lemmon),e,117.5830,59.9343,36.1417,8.169299,0.0422111,0.78348510,90.4830,01/07.0/2023,2000,g 15.0,4.0
# From MPEC 2021-P47
C/2016 X1 (Lemmon),e,26.4588,256.3421,224.4788,1361,0.0000196,0.99444594,0.0000,04/27.8750/2019,2000,g  6.0,4.0
# From MPC114598
C/2017 AB5 (PANSTARRS),e,32.4660,42.5955,78.2813,2701,0.0000070,0.99659248,0.0000,02/14.5798/2018,2000,g  5.5,4.0
# From MPEC 2022-OB6
C/2017 B3 (LINEAR),h,02/01.4458/2019,54.1590,2.1753,284.8322,1.000282,3.929511,2000,6.0,4.0
# From MPC103847
P/2017 B4 (PANSTARRS),e,20.0584,121.4578,11.0197,4.410520,0.1064068,0.36495152,359.9130,01/05.0/2017,2000,g 14.5,4.0
# From MPEC 2022-OB6
P/2017 D1 (Fuls),e,20.7672,82.1895,7.9527,4.827771,0.0929146,0.43696474,221.9659,01/07.0/2023,2000,g 14.0,4.0
# From MPEC 2022-OB6
P/2017 D4 (PANSTARRS),e,10.5493,264.9448,212.1295,7.548557,0.0475235,0.62898940,110.0061,01/07.0/2023,2000,g 13.0,4.0
# From MPC111769
C/2017 F1 (Lemmon),h,11/27.7131/2017,146.4707,158.7861,64.7239,1.001264,4.501141,2000,10.5,4.0
# From MPC114598
C/2017 F2 (PANSTARRS),h,11/25.4219/2017,42.5606,38.7109,134.8663,1.001656,6.921976,2000,7.5,4.0
# From MPC104794
P/2017 G1 (PANSTARRS),e,4.7840,249.6761,224.3523,7.275384,0.0502250,0.65374352,122.8307,01/07.0/2023,2000,g 13.5,4.0
# From MPC108595
P/2017 G2 (PANSTARRS),e,47.9608,79.8429,105.4069,8.051064,0.0431444,0.64754441,87.9215,01/07.0/2023,2000,g 13.0,4.0
# From MPC115882
C/2017 K1 (PANSTARRS),h,03/17.7501/2018,154.0220,225.7361,4.4090,1.003365,7.281921,2000,7.0,4.0
# From MPEC 2023-A16
C/2017 K2 (PANSTARRS),h,12/19.6876/2022,87.5633,88.2357,236.2007,1.000809,1.796887,2000,1.5,4.0
# From MPEC 2021-N06
P/2017 K3 (Gasparovic),e,4.2734,354.2961,253.4182,5.584931,0.0746754,0.57910958,153.0874,01/07.0/2023,2000,g 14.5,4.0
# From MPC114598
C/2017 K4 (ATLAS),e,16.6583,298.9248,15.3565,28.70488,0.0064087,0.90722609,11.6958,01/07.0/2023,2000,g 10.0,4.0
# From MPEC 2021-P47
C/2017 K5 (PANSTARRS),h,03/27.3807/2020,82.2541,102.3890,172.0700,1.005163,7.684253,2000,5.0,4.0
# From MPC114599
C/2017 K6 (Jacques),e,57.2170,84.8739,303.8341,1273,0.0000217,0.99843168,0.0000,01/04.0928/2018,2000,g 11.0,4.0
# From MPEC 2022-OB6
C/2017 M4 (ATLAS),h,01/17.9773/2019,105.6384,65.9707,167.6043,1.001235,3.251541,2000,6.0,4.0
# From MPC118841
C/2017 M5 (TOTAS),h,06/04.1263/2018,15.8613,216.2887,92.8734,1.005003,6.005933,2000,6.5,4.0
# From MPC114599
P/2017 P1 (PANSTARRS),e,7.6892,221.3627,122.7358,7.913726,0.0442723,0.31082855,73.4531,01/07.0/2023,2000,g 10.0,4.0
# From MPC114599
C/2017 P2 (PANSTARRS),e,50.0493,165.4677,132.5308,2528,0.0000078,0.99901981,0.0000,12/05.6444/2017,2000,g 10.0,4.0
# From MPC114599
C/2017 S3 (PANSTARRS),h,08/16.7438/2018,99.1967,171.2909,255.8026,1.000093,0.204861,2000,12.9,4.0
# From MPC109591
C/2017 S6 (Catalina),h,02/26.2472/2018,152.8634,131.1404,135.0494,1.001003,1.552252,2000,12.5,4.0
# From MPEC 2022-OB6
P/2017 S8 (PANSTARRS),e,29.8486,191.5189,254.8565,2.778030,0.2128623,0.39079824,24.2228,01/07.0/2023,2000,g 16.0,4.0
# From MPEC 2022-Y14
P/2017 S9 (PANSTARRS),e,14.1389,146.2104,237.5796,3.155369,0.1758445,0.30541730,351.2915,01/07.0/2023,2000,g 17.0,4.0
# From MPC114600
C/2017 T1 (Heinze),e,96.9226,102.5976,97.0401,10632,0.0000009,0.99994487,0.0000,02/20.6068/2018,2000,g 14.5,4.0
# From MPEC 2022-YN2
C/2017 T2 (PANSTARRS),e,57.2631,64.4120,92.9253,1588,0.0000156,0.99898368,0.0000,05/04.8116/2020,2000,g  5.0,4.0
# From MPC114600
C/2017 T3 (ATLAS),e,88.2542,230.2277,246.7990,1242,0.0000225,0.99933696,0.0000,07/19.2230/2018,2000,g 10.0,4.0
# From MPC115882
P/2017 TW13 (Lemmon),e,44.8500,322.2574,119.9125,7.135545,0.0517087,0.71026842,85.8453,01/07.0/2023,2000,g 15.0,2.0
# From MPEC 2022-K19
P/2017 U3 (PANSTARRS),e,15.9183,165.1077,296.2763,4.924831,0.0901814,0.09963177,123.1833,01/07.0/2023,2000,g 11.0,4.0
# From MPEC 2021-P47
C/2017 U4 (PANSTARRS),e,158.2023,245.9104,158.9753,14304,0.0000006,0.99946002,0.0000,09/21.6397/2018,2000,g  7.0,4.0
# From MPC114600
C/2017 U5 (PANSTARRS),e,18.9765,163.0841,262.0065,16.91482,0.0141678,0.74489419,26.1283,01/07.0/2023,2000,g 12.0,4.0
# From MPEC 2022-YB4
C/2017 U7 (PANSTARRS),h,09/15.2520/2019,142.6126,276.2664,326.4237,1.001606,6.428072,2000,8.3,2.0
# From MPC114601
P/2017 W3 (Gibbs),e,18.1680,210.2111,327.8164,7.831607,0.0449705,0.50633416,79.8353,01/07.0/2023,2000,g 10.5,4.0
# From MPEC 2021-R75
C/2017 X1 (PANSTARRS),e,31.3362,251.1558,283.1386,31.01437,0.0057064,0.84961761,9.5185,01/07.0/2023,2000,g 10.0,4.0
# From MPEC 2022-QD9
C/2017 Y2 (PANSTARRS),h,11/05.0918/2020,128.4357,66.0107,147.9358,1.001416,4.632737,2000,15.0,4.0
# From MPC111770
P/2017 Y3 (Leonard),e,27.5643,153.8569,67.5804,9.821898,0.0320192,0.86945422,57.4247,01/07.0/2023,2000,g 16.5,4.0
# From MPEC 2021-P47
C/2018 A3 (ATLAS),e,139.5373,194.2931,86.3506,368.2775,0.0001395,0.99109791,0.0000,01/10.9393/2019,2000,g  8.5,4.0
# From MPC114601
C/2018 A4 (PANSTARRS),e,3.1506,97.5817,355.9562,12.18406,0.0231748,0.80384191,39.2482,01/07.0/2023,2000,g 14.0,4.0
# From MPC109147
P/2018 A5 (PANSTARRS),e,23.6089,87.7922,359.4866,5.628528,0.0738094,0.52337978,142.5129,01/07.0/2023,2000,g 15.0,4.0
# From MPEC 2022-ST7
C/2018 A6 (Gibbs),e,77.0600,340.3828,264.3539,15.05335,0.0168754,0.79952195,21.5226,01/07.0/2023,2000,g  9.0,4.0
# From MPEC 2022-O08
C/2018 B1 (Lemmon),e,162.4181,133.1921,68.4021,3807,0.0000042,0.99865212,0.0000,03/27.3117/2018,2000,g  9.0,4.0
# From MPC114601
P/2018 C1 (Lemmon-Read),e,5.1117,270.3343,235.6956,5.652537,0.0733397,0.53203637,130.4416,01/07.0/2023,2000,g 13.5,4.0
# From MPC114601
C/2018 C2 (Lemmon),e,34.4633,91.2538,134.0112,77198,0.0000000,0.99997460,0.0000,05/31.2752/2018,2000,g 13.0,4.0
# From MPEC 2022-M88
C/2018 DO4 (Lemmon),e,160.4426,251.4361,176.3015,25.34676,0.0077236,0.90479688,9.5699,01/07.0/2023,2000,g 11.0,4.0
# From MPC114602
C/2018 E1 (ATLAS),e,72.5030,146.8353,299.2854,53.86228,0.0024933,0.95001827,4.3006,01/07.0/2023,2000,g 10.5,4.0
# From MPEC 2022-N37
C/2018 E2 (Barros),e,97.6160,67.1486,277.4450,2690,0.0000071,0.99854255,0.0000,12/23.5556/2017,2000,g 10.5,4.0
# From MPC114602
C/2018 EN4 (NEOWISE),e,81.9373,136.1287,35.0229,17.91614,0.0129968,0.91844725,21.8327,01/07.0/2023,2000,g 15.0,4.0
# From MPC114602
C/2018 EF9 (Lemmon),e,84.6234,172.5580,72.6334,453.6419,0.0001020,0.99655719,0.0000,05/21.1956/2018,2000,g 18.0,2.0
# From MPEC 2021-R75
C/2018 F1 (Grauer),e,46.0794,177.2762,71.5884,241.3428,0.0002629,0.98758177,0.0000,12/12.0055/2018,2000,g 11.5,4.0
# From MPEC 2021-W31
C/2018 F4 (PANSTARRS),e,78.0838,26.5155,263.2209,12298,0.0000007,0.99971999,0.0000,12/03.2139/2019,2000,g 11.0,6.0
# From MPEC 2021-Y10
C/2018 F4-A,e,78.0840,26.5157,263.2177,10369,0.0000009,0.99966793,0.0000,12/03.2021/2019,2000,g 11.0,6.0
# From MPEC 2021-W31
C/2018 F4-B,e,78.0848,26.5153,263.2027,14598,0.0000006,0.99976414,0.0000,12/03.1383/2019,2000,g 11.0,6.0
# From MPC114602
P/2018 H2 (PANSTARRS),e,7.4224,67.8654,120.0767,4.383431,0.1073947,0.54227634,195.0167,01/07.0/2023,2000,g 16.6,2.0
# From MPC114602
C/2018 K1 (Weiland),e,164.1877,260.1824,325.2459,30.21676,0.0059338,0.93775014,10.2957,01/07.0/2023,2000,g 14.9,4.0
# From MPEC 2021-R75
C/2018 KJ3 (Lemmon),e,136.6743,91.6521,217.6668,950.5169,0.0000336,0.99618404,0.0000,09/09.9856/2019,2000,g 12.2,2.0
# From MPC114602
P/2018 L1 (PANSTARRS),e,10.5797,268.6146,18.0382,3.653743,0.1411228,0.48183104,214.1290,01/07.0/2023,2000,g 15.0,4.0
# From MPEC 2021-P47
C/2018 L2 (ATLAS),e,67.2604,243.0017,56.3269,257.7535,0.0002382,0.99334198,0.0000,12/02.2142/2018,2000,g 10.0,4.0
# From MPC114603
P/2018 L4 (PANSTARRS),e,26.6183,145.1732,140.6191,4.945381,0.0896199,0.65908181,145.2931,01/07.0/2023,2000,g 17.5,4.0
# From MPC119996
P/2018 L5 (Leonard),e,2.2088,219.0425,93.9601,3.628914,0.1425736,0.36425573,243.4246,01/07.0/2023,2000,g 14.5,4.0
# From MPC117070
C/2018 M1 (Catalina),e,37.2848,339.4177,14.2415,21.49946,0.0098870,0.93928594,16.2256,01/07.0/2023,2000,g 15.5,4.0
# From MPEC 2022-M21
C/2018 N1 (NEOWISE),e,159.4118,292.5355,354.7323,509.2337,0.0000858,0.99742909,0.0000,08/02.8442/2018,2000,g 15.5,4.0
# From MPEC 2022-YN2
C/2018 N2 (ASASSN),h,11/11.3400/2019,77.5538,25.2041,24.4810,1.000908,3.127603,2000,6.0,4.0
# From MPC114603
C/2018 O1 (ATLAS),e,154.0012,87.7815,162.7069,28.08866,0.0066208,0.94452493,10.5170,01/07.0/2023,2000,g 17.0,4.0
# From MPEC 2022-M21
P/2018 P3 (PANSTARRS),e,8.9145,59.1593,305.9841,3.004221,0.1892806,0.41712549,293.0514,01/07.0/2023,2000,g 14.5,4.0
# From MPC114603
P/2018 P4 (PANSTARRS),e,23.1087,353.0637,8.4274,6.684374,0.0570313,0.45058962,86.6798,01/07.0/2023,2000,g 12.0,4.0
# From MPEC 2021-P47
C/2018 P5 (PANSTARRS),e,7.2470,216.1985,131.9635,12.84414,0.0214115,0.64291144,30.1663,01/07.0/2023,2000,g 11.0,4.0
# From MPC118841
C/2018 R3 (Lemmon),e,69.7154,324.5934,112.7434,1565,0.0000159,0.99917995,0.0000,06/07.7658/2019,2000,g  9.5,4.0
# From MPEC 2022-M21
C/2018 R4 (Fuls),e,11.6689,298.5386,345.3192,345.7055,0.0001533,0.99501455,0.0000,03/02.5906/2018,2000,g 14.0,4.0
# From MPC114603
C/2018 R5 (Lemmon),e,103.7481,171.1176,178.1997,22.89372,0.0089977,0.84135206,13.1160,01/07.0/2023,2000,g 11.5,4.0
# From MPEC 2022-QC6
